{
    "links": {
        "self": "http://www.neowsapp.com/rest/v1/neo/3769710?api_key=iIulBulltgU6a56xZRHN4H3l9WmuAYTsLGpBGhQ2"
    },
    "id": "3769710",
    "neo_reference_id": "3769710",
    "name": "(2017 DX15)",
    "designation": "2017 DX15",
    "nasa_jpl_url": "http://ssd.jpl.nasa.gov/sbdb.cgi?sstr=3769710",
    "absolute_magnitude_h": 22.4,
    "estimated_diameter": {
        "kilometers": {
            "estimated_diameter_min": 0.0880146521,
            "estimated_diameter_max": 0.1968067451
        },
        "meters": {
            "estimated_diameter_min": 88.0146520901,
            "estimated_diameter_max": 196.8067450894
        },
        "miles": {
            "estimated_diameter_min": 0.0546897524,
            "estimated_diameter_max": 0.122290004
        },
        "feet": {
            "estimated_diameter_min": 288.7619911632,
            "estimated_diameter_max": 645.6914415591
        }
    },
    "is_potentially_hazardous_asteroid": false,
    "close_approach_data": [
        {
            "close_approach_date": "2009-02-07",
            "close_approach_date_full": "2009-Feb-07 17:13",
            "epoch_date_close_approach": 1234026780000,
            "relative_velocity": {
                "kilometers_per_second": "10.8506048796",
                "kilometers_per_hour": "39062.1775665899",
                "miles_per_hour": "24271.7180551958"
            },
            "miss_distance": {
                "astronomical": "0.364889556",
                "lunar": "141.942037284",
                "kilometers": "54586700.36284572",
                "miles": "33918602.778962136"
            },
            "orbiting_body": "Earth"
        },
        {
            "close_approach_date": "2017-02-08",
            "close_approach_date_full": "2017-Feb-08 06:41",
            "epoch_date_close_approach": 1486536060000,
            "relative_velocity": {
                "kilometers_per_second": "8.1644732449",
                "kilometers_per_hour": "29392.1036815888",
                "miles_per_hour": "18263.110201485"
            },
            "miss_distance": {
                "astronomical": "0.2540861104",
                "lunar": "98.8394969456",
                "kilometers": "38010740.912424848",
                "miles": "23618779.1856369824"
            },
            "orbiting_body": "Earth"
        },
        {
            "close_approach_date": "2025-02-11",
            "close_approach_date_full": "2025-Feb-11 14:20",
            "epoch_date_close_approach": 1739283600000,
            "relative_velocity": {
                "kilometers_per_second": "6.8173258505",
                "kilometers_per_hour": "24542.373061905",
                "miles_per_hour": "15249.6761950487"
            },
            "miss_distance": {
                "astronomical": "0.2371330934",
                "lunar": "92.2447733326",
                "kilometers": "35474605.679151058",
                "miles": "22042897.8262702804"
            },
            "orbiting_body": "Earth"
        }
    ],
    "orbital_data": {
        "orbit_id": "4",
        "orbit_determination_date": "2017-04-06 08:20:08",
        "first_observation_date": "2017-02-16",
        "last_observation_date": "2017-03-18",
        "data_arc_in_days": 30,
        "observations_used": 22,
        "orbit_uncertainty": "6",
        "minimum_orbit_intersection": ".23097",
        "jupiter_tisserand_invariant": "3.797",
        "epoch_osculation": "2459000.5",
        "eccentricity": ".3999242442345437",
        "semi_major_axis": "1.918855983144574",
        "inclination": "12.86095354084353",
        "ascending_node_longitude": "352.2680413630112",
        "orbital_period": "970.8720483652286",
        "perihelion_distance": "1.151458954290548",
        "perihelion_argument": "124.4955829288562",
        "aphelion_distance": "2.686253011998599",
        "perihelion_time": "2458745.545729940699",
        "mean_anomaly": "94.53721257697666",
        "mean_motion": ".3708006638013468",
        "equinox": "J2000",
        "orbit_class": {
            "orbit_class_type": "AMO",
            "orbit_class_description": "Near-Earth asteroid orbits similar to that of 1221 Amor",
            "orbit_class_range": "1.017 AU < q (perihelion) < 1.3 AU"
        }
    },
    "is_sentry_object": false
}